BADR-4                  
1 29526U 06051A   16132.51312146  .00000122  00000-0  00000+0 0  9996
2 29526   0.0498 331.9118 0004362  35.6545  72.8549  1.00271552 34900
FENGYUN 2D              
1 29640U 06053A   16131.73977700 -.00000380  00000-0  10000-3 0  9993
2 29640   3.7100  66.4438 0001345 154.8531  37.7229  1.00270241 34560
WILDBLUE-1              
1 29643U 06054A   16132.34785874 -.00000071  00000-0  00000+0 0  9996
2 29643   0.0355 110.7152 0001610 291.5741 201.3130  1.00272081 34551
AMC-18                  
1 29644U 06054B   16132.23954602 -.00000111  00000-0  00000+0 0  9997
2 29644   0.0503  87.4858 0002603 309.9509 173.3012  1.00271970 34563
MEASAT-3                
1 29648U 06056A   16131.71439953 -.00000264  00000-0  00000+0 0  9991
2 29648   0.0575 110.0958 0002414 345.5639 121.9621  1.00272668 34559
KIKU-8 (ETS-VIII)       
1 29656U 06059A   16130.13413257 -.00000260  00000-0  00000-0 0  9994
2 29656   4.8335  61.5998 0006445 347.4427  12.3315  1.00272638 34462
INSAT-4B                
1 30793U 07007A   16131.03841644 -.00000279  00000-0  00000+0 0  9996
2 30793   0.3169  89.6446 0003402 229.2194  16.7389  1.00272872 33568
SKYNET 5A               
1 30794U 07007B   16130.96884904 -.00000293  00000-0  00000-0 0  9991
2 30794   0.0700   5.4457 0003495  42.4969 264.2525  1.00273755 33701
ANIK F3                 
1 31102U 07009A   16130.38628471 -.00000022  00000-0  00000+0 0  9997
2 31102   0.0058 305.7958 0002011  95.6536 206.5205  1.00271982 33328
ASTRA 1L                
1 31306U 07016A   16130.97256229  .00000098  00000-0  00000-0 0  9997
2 31306   0.0405 284.2653 0000724  64.2120 249.0333  1.00270115  8089
GALAXY 17 (G-17)        
1 31307U 07016B   16132.20164771 -.00000196  00000-0  00000+0 0  9995
2 31307   0.0495  44.0360 0003260   8.1376 158.8386  1.00271343 33081
ZHONGXING-6B            
1 31800U 07031A   16131.64764837 -.00000383  00000-0  00000+0 0  9994
2 31800   0.0187 296.2023 0002640 103.1673 178.1741  1.00269612 32479
DIRECTV 10              
1 31862U 07032A   16130.65267710 -.00000124  00000-0  00000+0 0  9994
2 31862   0.0170  42.1797 0000194 255.1742  62.6431  1.00271694 32401
SPACEWAY 3              
1 32018U 07036A   16130.47759041 -.00000172  00000-0  00000+0 0  9998
2 32018   0.0244  98.8917 0000715 229.2506 336.5525  1.00272062 32113
BSAT-3A                 
1 32019U 07036B   16130.06341129 -.00000371  00000-0  00000-0 0  9990
2 32019   0.0295 204.6135 0000548  34.4942 120.8871  1.00272774 13491
INSAT-4CR               
1 32050U 07037A   16130.85776850 -.00000099  00000-0  00000-0 0  9993
2 32050   0.0382 269.8352 0005168  23.1527 317.9007  1.00272158 14390
OPTUS D2                
1 32252U 07044A   16130.76539810 -.00000204  00000-0  00000-0 0  9996
2 32252   0.0246 335.4411 0003097  73.2334 246.8823  1.00272979 31576
INTELSAT 11 (IS-11)     
1 32253U 07044B   16130.18432478 -.00000289  00000-0  00000+0 0  9997
2 32253   0.0112 240.3651 0002612 163.0189 207.4059  1.00271187 31515
STAR ONE C1             
1 32293U 07056A   16129.55061959 -.00000296  00000-0  00000+0 0  9993
2 32293   0.0425  86.1094 0002717 327.1047 306.8122  1.00272664 31094
SKYNET 5B               
1 32294U 07056B   16132.11691491  .00000120  00000-0  00000+0 0  9995
2 32294   0.0685 358.6079 0003752  48.8041 249.1115  1.00271204 31218
ASTRA 4A (SIRIUS 4)     
1 32299U 07057A   16130.21800600  .00000012  00000-0  00000+0 0  9994
2 32299   0.0288  33.3935 0002349 352.6746 284.6742  1.00273022 30948
HORIZONS-2              
1 32388U 07063B   16131.82175988 -.00000204  00000-0  00000+0 0  9996
2 32388   0.0102 343.7318 0002807  59.4614 206.5218  1.00271517 30881
THURAYA-3               
1 32404U 08001A   16132.04161293 -.00000327  00000-0  00000+0 0  9993
2 32404   4.2342 349.8698 0004606  47.7756 305.2147  1.00270880 30538
EXPRESS-AM33            
1 32478U 08003A   16131.72068670 -.00000302  00000-0  00000+0 0  9998
2 32478   0.0039 326.2049 0000492 159.1983  99.4614  1.00269873 30625
THOR 5                  
1 32487U 08006A   16131.81642421 -.00000031  00000-0  00000+0 0  9992
2 32487   0.0159 250.9050 0002284 151.1963 120.1043  1.00273393 30185
KIZUNA (WINDS)          
1 32500U 08007A   16131.91371211 -.00000280  00000-0  00000+0 0  9992
2 32500   0.0171 283.6525 0002674 120.3971 297.0313  1.00271694 30035
AMC-14                  
1 32708U 08011A   16130.87494131  .00000085  00000-0  00000-0 0  9991
2 32708  18.3723  69.1061 0043563 358.6368 133.3399  1.00269075 31150
DIRECTV 11              
1 32729U 08013A   16132.19673400 -.00000148  00000-0  00000+0 0  9991
2 32729   0.0396 100.1005 0000103 238.6534 222.2915  1.00271704 29944
ICO G1                  
1 32763U 08016A   16132.33302977 -.00000196  00000-0  00000+0 0  9999
2 32763   4.0068 350.4215 0003419  67.8904 198.2609  1.00270965 29479
VINASAT-1               
1 32767U 08018A   16130.99954546 -.00000350  00000-0  00000+0 0  9992
2 32767   0.0098 323.2806 0001406 101.6290 295.1035  1.00268000 29607
STAR ONE C2             
1 32768U 08018B   16131.88111546  .00000034  00000-0  10000-3 0  9990
2 32768   0.0607 112.7261 0001278 287.4670  76.1094  1.00267164 29569
TIANLIAN 1-01           
1 32779U 08019A   16132.05282030 -.00000156  00000-0  10000-3 0  9996
2 32779   1.9927  77.9191 0033953 226.2290  24.0049  1.00269296 29474
AMOS-3                  
1 32794U 08022A   16131.75403777 -.00000057  00000-0  00000+0 0  9991
2 32794   0.0040 108.5665 0002906 258.7731 129.0884  1.00270262 29454
GALAXY 18 (G-18)        
1 32951U 08024A   16129.71131905  .00000005  00000-0  00000-0 0  9995
2 32951   0.0176 287.8864 0003424 134.6904 297.4591  1.00273402  8890
CHINASAT 9 (ZX 9)       
1 33051U 08028A   16132.04696125 -.00000269  00000-0  00000+0 0  9993
2 33051   0.0106 304.5536 0003347 101.0883 292.7212  1.00271549 29011
SKYNET 5C               
1 33055U 08030A   16131.37927591 -.00000162  00000-0  00000+0 0  9991
2 33055   0.0638 353.5436 0003179  80.8097 272.9880  1.00268775 28895
TURKSAT 3A              
1 33056U 08030B   16130.99675190  .00000125  00000-0  00000+0 0  9992
2 33056   0.0534 124.4213 0003640 290.8736 213.7538  1.00273700 29073
INTELSAT 25 (IS-25)     
1 33153U 08034A   16129.45781105 -.00000243  00000-0  00000+0 0  9999
2 33153   0.0253 288.3862 0002820  97.9175 333.7123  1.00273669 28617
BADR-6                  
1 33154U 08034B   16131.24009534  .00000123  00000-0  00000+0 0  9995
2 33154   0.0598  26.6720 0005641  16.5937 297.6327  1.00274439 28758
ECHOSTAR 11             
1 33207U 08035A   16130.67259027 -.00000078  00000-0  00000+0 0  9995
2 33207   0.0146 322.7379 0002904  97.5099 299.7803  1.00271401 28650
SUPERBIRD-C2            
1 33274U 08038A   16131.66633058 -.00000273  00000-0  00000+0 0  9999
2 33274   0.0229  37.7403 0001316 359.8535 215.1246  1.00270331 28386
AMC-21                  
1 33275U 08038B   16131.60097049  .00000014  00000-0  00000+0 0  9990
2 33275   0.0211   2.8746 0002361  47.3382 270.0435  1.00271041 28469
INMARSAT 4-F3           
1 33278U 08039A   16131.33222887 -.00000163  00000-0  00000+0 0  9990
2 33278   3.0196 357.4890 0002840  58.0257 194.6677  1.00272075 28263
NIMIQ 4                 
1 33373U 08044A   16130.28620932 -.00000241  00000-0  00000+0 0  9995
2 33373   0.0033  20.3995 0002462  25.7640 202.4004  1.00271108 27824
GALAXY 19 (G-19)        
1 33376U 08045A   16131.63383453 -.00000161  00000-0  00000+0 0  9994
2 33376   0.0102 286.9463 0003013 128.2472 304.8348  1.00270442 27849
VENESAT-1               
1 33414U 08055A   16132.25153245 -.00000260  00000-0  00000+0 0  9991
2 33414   0.0059 108.9354 0001898 352.1392 140.9184  1.00270366 27564
ASTRA 1M                
1 33436U 08057A   16131.68774645  .00000098  00000-0  00000+0 0  9994
2 33436   0.0118 289.9926 0003663 158.8581  46.8465  1.00273922 27480
CIEL-2                  
1 33453U 08063A   16132.41278852  .00000036  00000-0  00000+0 0  9993
2 33453   0.0357  62.1800 0002693 338.1801 209.0107  1.00272830 27186
EUTELSAT HOT BIRD 13C   
1 33459U 08065A   16131.32913836  .00000065  00000-0  00000+0 0  9990
2 33459   0.0668  70.0828 0005202 349.6700 300.2967  1.00269361 27250
EUTELSAT 48D            
1 33460U 08065B   16130.92204019  .00000103  00000-0  00000-0 0  9997
2 33460   0.0812  57.0852 0001709 354.2278 196.8558  1.00272242 27038
FENGYUN 2E              
1 33463U 08066A   16131.70659778 -.00000224  00000-0  00000+0 0  9998
2 33463   1.4399  61.5865 0003186 203.0931 305.3531  1.00275967 27099
EXPRESS-AM44            
1 33595U 09007A   16131.75420039 -.00000111  00000-0  00000+0 0  9996
2 33595   0.0006 157.0382 0001602 317.5365  14.9037  1.00271737 26569
NSS-9                   
1 33749U 09008A   16131.53680900  .00000050  00000-0  00000+0 0  9990
2 33749   0.0499  77.4501 0001942 326.5898 201.0162  1.00270582 26567
EUTELSAT HOT BIRD 13D   
1 33750U 09008B   16131.04979418  .00000134  00000-0  00000+0 0  9996
2 33750   0.0319  13.3696 0001132  95.2512 170.6480  1.00271839 26591
TELSTAR 11N             
1 34111U 09009A   16132.23159972  .00000209  00000-0  10000-3 0  9994
2 34111   0.0126 257.2865 0002487 132.9442 244.9244  1.00264400 26433
EUTELSAT 10A            
1 34710U 09016A   16131.17431800  .00000046  00000-0  00000+0 0  9996
2 34710   0.0675 358.4962 0005266  53.7314 248.9197  1.00271372 25969
SES-7 (PROTOSTAR 2)     
1 34941U 09027A   16131.92078675 -.00000367  00000-0  00000+0 0  9991
2 34941   0.0704  82.5452 0001497 215.7517  10.5780  1.00270790 25621
MEASAT-3A               
1 35362U 09032A   16132.10882980 -.00000263  00000-0  00000+0 0  9993
2 35362   0.0304 208.1454 0000281  99.1906  52.6584  1.00270416 25252
GOES 14                 
1 35491U 09033A   16129.66057975 -.00000110  00000-0  00000+0 0  9993
2 35491   0.1719 101.5081 0002770 105.2527 153.2256  1.00271505 25143
